[{"OBJECT_NAME":"STARLINK-31929","OBJECT_ID":"2024-097B","EPOCH":"2026-03-09T22:53:16.910880","MEAN_MOTION":15.27571914,"ECCENTRICITY":0.00012783,"INCLINATION":43.0019,"RA_OF_ASC_NODE":273.1735,"ARG_OF_PERICENTER":243.1631,"MEAN_ANOMALY":116.909,"EPHEMERIS_TYPE":0,"CLASSIFICATION_TYPE":"U","NORAD_CAT_ID":59836,"ELEMENT_SET_NO":999,"REV_AT_EPOCH":10195,"BSTAR":-9.713232e-6,"MEAN_MOTION_DOT":-5.29e-6,"MEAN_MOTION_DDOT":0},{"OBJECT_NAME":"USA 22","OBJECT_ID":"1987-043A","EPOCH":"2026-03-09T12:49:38.770464","MEAN_MOTION":14.09930808,"ECCENTRICITY":0.06945592,"INCLINATION":63.291,"RA_OF_ASC_NODE":125.356,"ARG_OF_PERICENTER":106.1549,"MEAN_ANOMALY":261.7059,"EPHEMERIS_TYPE":0,"CLASSIFICATION_TYPE":"U","NORAD_CAT_ID":17997,"ELEMENT_SET_NO":999,"REV_AT_EPOCH":9242,"BSTAR":0.00062215279,"MEAN_MOTION_DOT":0.00012639,"MEAN_MOTION_DDOT":0}]
